{
  "type": "FeatureCollection",
  "name": "Quezon City Legislative Districts",
  "features": [
    {
      "type": "Feature",
      "properties": {
        "district_name": "District 1",
        "district_number": 1,
        "district_label": "QC District 1 - Fairview / Greater Lagro"
      },
      "geometry": {
        "type": "Polygon",
        "coordinates": [[[121.0600,14.6650],[121.0680,14.6700],[121.0760,14.6780],[121.0840,14.6860],[121.0930,14.6940],[121.1020,14.7020],[121.1120,14.7100],[121.1220,14.7180],[121.1300,14.7260],[121.1360,14.7340],[121.1400,14.7440],[121.1380,14.7540],[121.1320,14.7620],[121.1220,14.7660],[121.1120,14.7680],[121.1020,14.7660],[121.0950,14.7600],[121.0900,14.7500],[121.0860,14.7400],[121.0830,14.7300],[121.0800,14.7200],[121.0760,14.7100],[121.0710,14.7000],[121.0660,14.6920],[121.0600,14.6840],[121.0540,14.6760],[121.0480,14.6700],[121.0460,14.6650],[121.0520,14.6620],[121.0600,14.6650]]]
      }
    },
    {
      "type": "Feature",
      "properties": {
        "district_name": "District 2",
        "district_number": 2,
        "district_label": "QC District 2 - Cubao / Project 6"
      },
      "geometry": {
        "type": "Polygon",
        "coordinates": [[[121.0180,14.6540],[121.0260,14.6580],[121.0340,14.6620],[121.0420,14.6650],[121.0460,14.6650],[121.0480,14.6700],[121.0540,14.6760],[121.0600,14.6840],[121.0660,14.6920],[121.0600,14.6960],[121.0520,14.6980],[121.0440,14.6970],[121.0360,14.6930],[121.0280,14.6880],[121.0220,14.6820],[121.0180,14.6740],[121.0140,14.6660],[121.0180,14.6540]]]
      }
    },
    {
      "type": "Feature",
      "properties": {
        "district_name": "District 3",
        "district_number": 3,
        "district_label": "QC District 3 - Bagumbayan / Loyola Heights"
      },
      "geometry": {
        "type": "Polygon",
        "coordinates": [[[121.0500,14.6140],[121.0580,14.6160],[121.0660,14.6180],[121.0740,14.6200],[121.0820,14.6180],[121.0900,14.6140],[121.0980,14.6100],[121.1080,14.6060],[121.1180,14.6040],[121.1260,14.6060],[121.1320,14.6140],[121.1360,14.6240],[121.1380,14.6340],[121.1360,14.6440],[121.1300,14.6520],[121.1220,14.6580],[121.1140,14.6620],[121.1060,14.6640],[121.0980,14.6620],[121.0900,14.6560],[121.0820,14.6480],[121.0740,14.6400],[121.0660,14.6340],[121.0580,14.6280],[121.0500,14.6220],[121.0460,14.6180],[121.0500,14.6140]]]
      }
    },
    {
      "type": "Feature",
      "properties": {
        "district_name": "District 4",
        "district_number": 4,
        "district_label": "QC District 4 - Tandang Sora / Bago Bantay"
      },
      "geometry": {
        "type": "Polygon",
        "coordinates": [[[121.0140,14.6180],[121.0220,14.6160],[121.0300,14.6140],[121.0380,14.6140],[121.0460,14.6180],[121.0500,14.6220],[121.0580,14.6280],[121.0660,14.6340],[121.0740,14.6400],[121.0680,14.6460],[121.0600,14.6500],[121.0520,14.6540],[121.0440,14.6560],[121.0360,14.6540],[121.0280,14.6500],[121.0200,14.6440],[121.0140,14.6380],[121.0100,14.6300],[121.0100,14.6240],[121.0140,14.6180]]]
      }
    },
    {
      "type": "Feature",
      "properties": {
        "district_name": "District 5",
        "district_number": 5,
        "district_label": "QC District 5 - South Triangle / Kamuning"
      },
      "geometry": {
        "type": "Polygon",
        "coordinates": [[[121.0060,14.6360],[121.0140,14.6380],[121.0200,14.6440],[121.0280,14.6500],[121.0360,14.6540],[121.0440,14.6560],[121.0520,14.6540],[121.0520,14.6620],[121.0460,14.6650],[121.0420,14.6650],[121.0340,14.6620],[121.0260,14.6580],[121.0180,14.6540],[121.0140,14.6660],[121.0100,14.6600],[121.0060,14.6520],[121.0040,14.6440],[121.0060,14.6360]]]
      }
    },
    {
      "type": "Feature",
      "properties": {
        "district_name": "District 6",
        "district_number": 6,
        "district_label": "QC District 6 - Novaliches / San Bartolome"
      },
      "geometry": {
        "type": "Polygon",
        "coordinates": [[[121.0220,14.7080],[121.0300,14.7180],[121.0380,14.7280],[121.0460,14.7360],[121.0540,14.7420],[121.0600,14.7430],[121.0600,14.7380],[121.0660,14.7280],[121.0710,14.7200],[121.0760,14.7100],[121.0800,14.7200],[121.0830,14.7300],[121.0860,14.7400],[121.0900,14.7500],[121.0950,14.7600],[121.1020,14.7660],[121.1020,14.7730],[121.0930,14.7730],[121.0830,14.7730],[121.0730,14.7700],[121.0640,14.7660],[121.0540,14.7580],[121.0460,14.7480],[121.0380,14.7380],[121.0300,14.7280],[121.0240,14.7180],[121.0220,14.7080]]]
      }
    }
  ]
}
